{
    "links": {
        "self": "http://www.neowsapp.com/rest/v1/neo/54017227?api_key=iIulBulltgU6a56xZRHN4H3l9WmuAYTsLGpBGhQ2"
    },
    "id": "54017227",
    "neo_reference_id": "54017227",
    "name": "(2020 KL4)",
    "designation": "2020 KL4",
    "nasa_jpl_url": "http://ssd.jpl.nasa.gov/sbdb.cgi?sstr=54017227",
    "absolute_magnitude_h": 24.18,
    "estimated_diameter": {
        "kilometers": {
            "estimated_diameter_min": 0.038775283,
            "estimated_diameter_max": 0.0867041687
        },
        "meters": {
            "estimated_diameter_min": 38.7752830381,
            "estimated_diameter_max": 86.70416872
        },
        "miles": {
            "estimated_diameter_min": 0.0240938364,
            "estimated_diameter_max": 0.053875456
        },
        "feet": {
            "estimated_diameter_min": 127.2154996028,
            "estimated_diameter_max": 284.4625049034
        }
    },
    "is_potentially_hazardous_asteroid": false,
    "close_approach_data": [
        {
            "close_approach_date": "2016-05-19",
            "close_approach_date_full": "2016-May-19 10:48",
            "epoch_date_close_approach": 1463654880000,
            "relative_velocity": {
                "kilometers_per_second": "21.6367853482",
                "kilometers_per_hour": "77892.4272535931",
                "miles_per_hour": "48399.325145434"
            },
            "miss_distance": {
                "astronomical": "0.4726481426",
                "lunar": "183.8601274714",
                "kilometers": "70707155.392416262",
                "miles": "43935389.0497859356"
            },
            "orbiting_body": "Earth"
        },
        {
            "close_approach_date": "2018-05-27",
            "close_approach_date_full": "2018-May-27 13:19",
            "epoch_date_close_approach": 1527427140000,
            "relative_velocity": {
                "kilometers_per_second": "17.1554578082",
                "kilometers_per_hour": "61759.648109381",
                "miles_per_hour": "38375.0435710762"
            },
            "miss_distance": {
                "astronomical": "0.255804345",
                "lunar": "99.507890205",
                "kilometers": "38267785.14874515",
                "miles": "23778499.06777707"
            },
            "orbiting_body": "Earth"
        },
        {
            "close_approach_date": "2020-06-02",
            "close_approach_date_full": "2020-Jun-02 07:05",
            "epoch_date_close_approach": 1591081500000,
            "relative_velocity": {
                "kilometers_per_second": "14.0881140443",
                "kilometers_per_hour": "50717.2105594843",
                "miles_per_hour": "31513.7023056974"
            },
            "miss_distance": {
                "astronomical": "0.1354425434",
                "lunar": "52.6871493826",
                "kilometers": "20261916.000022558",
                "miles": "12590170.7884369804"
            },
            "orbiting_body": "Earth"
        },
        {
            "close_approach_date": "2022-06-06",
            "close_approach_date_full": "2022-Jun-06 10:19",
            "epoch_date_close_approach": 1654510740000,
            "relative_velocity": {
                "kilometers_per_second": "13.1600011895",
                "kilometers_per_hour": "47376.0042822058",
                "miles_per_hour": "29437.6066607961"
            },
            "miss_distance": {
                "astronomical": "0.2896959704",
                "lunar": "112.6917324856",
                "kilometers": "43337900.119423048",
                "miles": "26928922.4234841424"
            },
            "orbiting_body": "Earth"
        }
    ],
    "orbital_data": {
        "orbit_id": "2",
        "orbit_determination_date": "2020-05-28 06:50:15",
        "first_observation_date": "2020-05-13",
        "last_observation_date": "2020-05-28",
        "data_arc_in_days": 15,
        "observations_used": 13,
        "orbit_uncertainty": "8",
        "minimum_orbit_intersection": ".133923",
        "jupiter_tisserand_invariant": "4.188",
        "epoch_osculation": "2458991.5",
        "eccentricity": ".3262177886522157",
        "semi_major_axis": "1.607304922530931",
        "inclination": "25.21872756833682",
        "ascending_node_longitude": "65.73563208529286",
        "orbital_period": "744.2962639733348",
        "perihelion_distance": "1.08297346501307",
        "perihelion_argument": "222.9600951804524",
        "aphelion_distance": "2.131636380048793",
        "perihelion_time": "2459041.133287580003",
        "mean_anomaly": "335.993452616012",
        "mean_motion": ".4836783649540089",
        "equinox": "J2000",
        "orbit_class": {
            "orbit_class_type": "AMO",
            "orbit_class_description": "Near-Earth asteroid orbits similar to that of 1221 Amor",
            "orbit_class_range": "1.017 AU < q (perihelion) < 1.3 AU"
        }
    },
    "is_sentry_object": false
}